{
  "type": "FeatureCollection",
  "features": [
    {
      "type": "Feature",
      "properties": {
        "norad_id": 36046,
        "name": "COSMOS 2251 DEB",
        "group": "cosmos-2251-debris",
        "lat": -41.693211373906415,
        "lon": -101.89832260412089,
        "alt_km": 690.3848338648668,
        "timestamp": "2025-12-14T14:39:29.766095+00:00",
        "meta_object_name": "COSMOS 2251 DEB",
        "meta_object_id": "1993-036AXH",
        "meta_epoch": "2025-12-13T13:27:02.887776",
        "meta_mean_motion": 14.65277312,
        "meta_eccentricity": 0.00555987,
        "meta_inclination": 74.0166,
        "meta_ra_of_asc_node": 274.9164,
        "meta_arg_of_pericenter": 60.6505,
        "meta_mean_anomaly": 118.1595,
        "meta_ephemeris_type": 0,
        "meta_classification_type": "U",
        "meta_norad_cat_id": 36046,
        "meta_element_set_no": 999,
        "meta_rev_at_epoch": 64015,
        "meta_bstar": 0.000804374,
        "meta_mean_motion_dot": 4.408e-05,
        "meta_mean_motion_ddot": 0,
        "tle_line1": "1 36046U 93036AXH 25347.56045009  .00004408  00000+0  80437-3 0  9990",
        "tle_line2": "2 36046  74.0166 274.9164 0055598  60.6505 118.1595 14.65277312640156"
      },
      "geometry": {
        "type": "Point",
        "coordinates": [
          -101.89832260412089,
          -41.693211373906415
        ]
      }
    },
    {
      "type": "Feature",
      "properties": {
        "norad_id": 36047,
        "name": "COSMOS 2251 DEB",
        "group": "cosmos-2251-debris",
        "lat": 73.07721881090667,
        "lon": 80.18635821064115,
        "alt_km": 572.5027008294601,
        "timestamp": "2025-12-14T14:39:29.766105+00:00",
        "meta_object_name": "COSMOS 2251 DEB",
        "meta_object_id": "1993-036AXJ",
        "meta_epoch": "2025-12-13T09:20:40.596000",
        "meta_mean_motion": 14.96004971,
        "meta_eccentricity": 0.00082365,
        "meta_inclination": 74.0362,
        "meta_ra_of_asc_node": 332.8451,
        "meta_arg_of_pericenter": 359.1312,
        "meta_mean_anomaly": 0.9857,
        "meta_ephemeris_type": 0,
        "meta_classification_type": "U",
        "meta_norad_cat_id": 36047,
        "meta_element_set_no": 999,
        "meta_rev_at_epoch": 65949,
        "meta_bstar": 0.0037615034,
        "meta_mean_motion_dot": 0.00042457,
        "meta_mean_motion_ddot": 0,
        "tle_line1": "1 36047U 93036AXJ 25347.38935875  .00042457  00000+0  37615-2 0  9995",
        "tle_line2": "2 36047  74.0362 332.8451 0008236 359.1312   0.9857 14.96004971659496"
      },
      "geometry": {
        "type": "Point",
        "coordinates": [
          80.18635821064115,
          73.07721881090667
        ]
      }
    },
    {
      "type": "Feature",
      "properties": {
        "norad_id": 36048,
        "name": "COSMOS 2251 DEB",
        "group": "cosmos-2251-debris",
        "lat": -6.425445301736468,
        "lon": -66.00064725636534,
        "alt_km": 750.1046867480582,
        "timestamp": "2025-12-14T14:39:29.766115+00:00",
        "meta_object_name": "COSMOS 2251 DEB",
        "meta_object_id": "1993-036AXK",
        "meta_epoch": "2025-12-13T22:15:29.761056",
        "meta_mean_motion": 14.37854636,
        "meta_eccentricity": 0.00267032,
        "meta_inclination": 74.0569,
        "meta_ra_of_asc_node": 297.1003,
        "meta_arg_of_pericenter": 346.9545,
        "meta_mean_anomaly": 70.738,
        "meta_ephemeris_type": 0,
        "meta_classification_type": "U",
        "meta_norad_cat_id": 36048,
        "meta_element_set_no": 999,
        "meta_rev_at_epoch": 85519,
        "meta_bstar": 0.00039822599,
        "meta_mean_motion_dot": 1.18e-05,
        "meta_mean_motion_ddot": 0,
        "tle_line1": "1 36048U 93036AXK 25347.92742779  .00001180  00000+0  39823-3 0  9997",
        "tle_line2": "2 36048  74.0569 297.1003 0026703 346.9545  70.7380 14.37854636855190"
      },
      "geometry": {
        "type": "Point",
        "coordinates": [
          -66.00064725636534,
          -6.425445301736468
        ]
      }
    },
    {
      "type": "Feature",
      "properties": {
        "norad_id": 36049,
        "name": "COSMOS 2251 DEB",
        "group": "cosmos-2251-debris",
        "lat": -72.63689066843435,
        "lon": 1.9289060297827378,
        "alt_km": 689.4123695606995,
        "timestamp": "2025-12-14T14:39:29.766125+00:00",
        "meta_object_name": "COSMOS 2251 DEB",
        "meta_object_id": "1993-036AXL",
        "meta_epoch": "2025-12-12T15:28:50.877120",
        "meta_mean_motion": 14.62144824,
        "meta_eccentricity": 0.00107751,
        "meta_inclination": 74.03,
        "meta_ra_of_asc_node": 119.3632,
        "meta_arg_of_pericenter": 206.0125,
        "meta_mean_anomaly": 154.0501,
        "meta_ephemeris_type": 0,
        "meta_classification_type": "U",
        "meta_norad_cat_id": 36049,
        "meta_element_set_no": 999,
        "meta_rev_at_epoch": 85363,
        "meta_bstar": 0.0021295048,
        "meta_mean_motion_dot": 0.00010708,
        "meta_mean_motion_ddot": 0,
        "tle_line1": "1 36049U 93036AXL 25346.64503330  .00010708  00000+0  21295-2 0  9993",
        "tle_line2": "2 36049  74.0300 119.3632 0010775 206.0125 154.0501 14.62144824853636"
      },
      "geometry": {
        "type": "Point",
        "coordinates": [
          1.9289060297827378,
          -72.63689066843435
        ]
      }
    },
    {
      "type": "Feature",
      "properties": {
        "norad_id": 36050,
        "name": "COSMOS 2251 DEB",
        "group": "cosmos-2251-debris",
        "lat": -52.36964213839631,
        "lon": 32.01923562688532,
        "alt_km": 518.9823253635068,
        "timestamp": "2025-12-14T14:39:29.766135+00:00",
        "meta_object_name": "COSMOS 2251 DEB",
        "meta_object_id": "1993-036AXM",
        "meta_epoch": "2025-12-13T07:12:52.072416",
        "meta_mean_motion": 15.0104813,
        "meta_eccentricity": 0.00886789,
        "meta_inclination": 74.0308,
        "meta_ra_of_asc_node": 192.882,
        "meta_arg_of_pericenter": 272.3797,
        "meta_mean_anomaly": 86.7239,
        "meta_ephemeris_type": 0,
        "meta_classification_type": "U",
        "meta_norad_cat_id": 36050,
        "meta_element_set_no": 999,
        "meta_rev_at_epoch": 67043,
        "meta_bstar": 0.00086975595,
        "meta_mean_motion_dot": 0.0001207,
        "meta_mean_motion_ddot": 0,
        "tle_line1": "1 36050U 93036AXM 25347.30060269  .00012070  00000+0  86976-3 0  9990",
        "tle_line2": "2 36050  74.0308 192.8820 0088678 272.3797  86.7239 15.01048130670430"
      },
      "geometry": {
        "type": "Point",
        "coordinates": [
          32.01923562688532,
          -52.36964213839631
        ]
      }
    },
    {
      "type": "Feature",
      "properties": {
        "norad_id": 36053,
        "name": "COSMOS 2251 DEB",
        "group": "cosmos-2251-debris",
        "lat": -27.011452067898663,
        "lon": -22.420773533171158,
        "alt_km": 715.507301461027,
        "timestamp": "2025-12-14T14:39:29.766259+00:00",
        "meta_object_name": "COSMOS 2251 DEB",
        "meta_object_id": "1993-036AXQ",
        "meta_epoch": "2025-12-13T04:45:23.710176",
        "meta_mean_motion": 14.57191678,
        "meta_eccentricity": 0.0032546,
        "meta_inclination": 73.8709,
        "meta_ra_of_asc_node": 151.8055,
        "meta_arg_of_pericenter": 100.6659,
        "meta_mean_anomaly": 259.8172,
        "meta_ephemeris_type": 0,
        "meta_classification_type": "U",
        "meta_norad_cat_id": 36053,
        "meta_element_set_no": 999,
        "meta_rev_at_epoch": 87451,
        "meta_bstar": 0.0027691156,
        "meta_mean_motion_dot": 0.00012586,
        "meta_mean_motion_ddot": 0,
        "tle_line1": "1 36053U 93036AXQ 25347.19819109  .00012586  00000+0  27691-2 0  9995",
        "tle_line2": "2 36053  73.8709 151.8055 0032546 100.6659 259.8172 14.57191678874513"
      },
      "geometry": {
        "type": "Point",
        "coordinates": [
          -22.420773533171158,
          -27.011452067898663
        ]
      }
    },
    {
      "type": "Feature",
      "properties": {
        "norad_id": 36058,
        "name": "COSMOS 2251 DEB",
        "group": "cosmos-2251-debris",
        "lat": -15.215113656769619,
        "lon": 25.424709213463515,
        "alt_km": 733.225307940138,
        "timestamp": "2025-12-14T14:39:29.766272+00:00",
        "meta_object_name": "COSMOS 2251 DEB",
        "meta_object_id": "1993-036AXV",
        "meta_epoch": "2025-12-13T20:37:32.134944",
        "meta_mean_motion": 14.58701231,
        "meta_eccentricity": 0.00444905,
        "meta_inclination": 74.0239,
        "meta_ra_of_asc_node": 31.3248,
        "meta_arg_of_pericenter": 165.3965,
        "meta_mean_anomaly": 194.8498,
        "meta_ephemeris_type": 0,
        "meta_classification_type": "U",
        "meta_norad_cat_id": 36058,
        "meta_element_set_no": 999,
        "meta_rev_at_epoch": 66127,
        "meta_bstar": 0.00064390107,
        "meta_mean_motion_dot": 3.016e-05,
        "meta_mean_motion_ddot": 0,
        "tle_line1": "1 36058U 93036AXV 25347.85939971  .00003016  00000+0  64390-3 0  9999",
        "tle_line2": "2 36058  74.0239  31.3248 0044490 165.3965 194.8498 14.58701231661273"
      },
      "geometry": {
        "type": "Point",
        "coordinates": [
          25.424709213463515,
          -15.215113656769619
        ]
      }
    }
  ]
}